{
  "type": "FeatureCollection",
  "features": [
    {
      "type": "Feature",
      "properties": {
        "norad_id": 55973,
        "name": "TIANMU-1 03",
        "group": "weather",
        "lat": 52.552042304707584,
        "lon": 138.3636352015846,
        "alt_km": 435.5580428848443,
        "timestamp": "2025-12-11T15:53:39.185589+00:00",
        "meta_object_name": "TIANMU-1 03",
        "meta_object_id": "2023-039A",
        "meta_epoch": "2025-12-11T06:18:46.738944",
        "meta_mean_motion": 15.40873184,
        "meta_eccentricity": 0.00044713,
        "meta_inclination": 97.511,
        "meta_ra_of_asc_node": 147.8734,
        "meta_arg_of_pericenter": 65.408,
        "meta_mean_anomaly": 294.7631,
        "meta_ephemeris_type": 0,
        "meta_classification_type": "U",
        "meta_norad_cat_id": 55973,
        "meta_element_set_no": 999,
        "meta_rev_at_epoch": 15183,
        "meta_bstar": 0.0012227128,
        "meta_mean_motion_dot": 0.000504,
        "meta_mean_motion_ddot": 0,
        "tle_line1": "1 55973U 23039A   25345.26304096  .00050400  00000+0  12227-2 0  9999",
        "tle_line2": "2 55973  97.5110 147.8734 0004471  65.4080 294.7631 15.40873184151838"
      },
      "geometry": {
        "type": "Point",
        "coordinates": [
          138.3636352015846,
          52.552042304707584
        ]
      }
    },
    {
      "type": "Feature",
      "properties": {
        "norad_id": 55974,
        "name": "TIANMU-1 04",
        "group": "weather",
        "lat": 13.80409435912312,
        "lon": -30.668712969939165,
        "alt_km": 444.7087696400513,
        "timestamp": "2025-12-11T15:53:39.185602+00:00",
        "meta_object_name": "TIANMU-1 04",
        "meta_object_id": "2023-039B",
        "meta_epoch": "2025-12-11T05:49:38.776224",
        "meta_mean_motion": 15.41187405,
        "meta_eccentricity": 0.00051507,
        "meta_inclination": 97.5042,
        "meta_ra_of_asc_node": 147.0444,
        "meta_arg_of_pericenter": 60.6322,
        "meta_mean_anomaly": 299.5438,
        "meta_ephemeris_type": 0,
        "meta_classification_type": "U",
        "meta_norad_cat_id": 55974,
        "meta_element_set_no": 999,
        "meta_rev_at_epoch": 15183,
        "meta_bstar": 0.00058944325,
        "meta_mean_motion_dot": 0.00024426,
        "meta_mean_motion_ddot": 0,
        "tle_line1": "1 55974U 23039B   25345.24280991  .00024426  00000+0  58944-3 0  9991",
        "tle_line2": "2 55974  97.5042 147.0444 0005150  60.6322 299.5438 15.41187405151837"
      },
      "geometry": {
        "type": "Point",
        "coordinates": [
          -30.668712969939165,
          13.80409435912312
        ]
      }
    },
    {
      "type": "Feature",
      "properties": {
        "norad_id": 55975,
        "name": "TIANMU-1 05",
        "group": "weather",
        "lat": -19.3050496242121,
        "lon": -34.68063572582037,
        "alt_km": 450.2128969962423,
        "timestamp": "2025-12-11T15:53:39.185613+00:00",
        "meta_object_name": "TIANMU-1 05",
        "meta_object_id": "2023-039C",
        "meta_epoch": "2025-12-11T07:14:20.806944",
        "meta_mean_motion": 15.40834948,
        "meta_eccentricity": 0.00043873,
        "meta_inclination": 97.5089,
        "meta_ra_of_asc_node": 147.5972,
        "meta_arg_of_pericenter": 81.9044,
        "meta_mean_anomaly": 278.27,
        "meta_ephemeris_type": 0,
        "meta_classification_type": "U",
        "meta_norad_cat_id": 55975,
        "meta_element_set_no": 999,
        "meta_rev_at_epoch": 15182,
        "meta_bstar": 0.0012407523,
        "meta_mean_motion_dot": 0.00051084,
        "meta_mean_motion_ddot": 0,
        "tle_line1": "1 55975U 23039C   25345.30162971  .00051084  00000+0  12408-2 0  9990",
        "tle_line2": "2 55975  97.5089 147.5972 0004387  81.9044 278.2700 15.40834948151823"
      },
      "geometry": {
        "type": "Point",
        "coordinates": [
          -34.68063572582037,
          -19.3050496242121
        ]
      }
    },
    {
      "type": "Feature",
      "properties": {
        "norad_id": 55976,
        "name": "TIANMU-1 06",
        "group": "weather",
        "lat": 25.956736502786057,
        "lon": -27.886242722982857,
        "alt_km": 440.91979880897907,
        "timestamp": "2025-12-11T15:53:39.185623+00:00",
        "meta_object_name": "TIANMU-1 06",
        "meta_object_id": "2023-039D",
        "meta_epoch": "2025-12-11T05:52:51.038688",
        "meta_mean_motion": 15.41240112,
        "meta_eccentricity": 0.00047159,
        "meta_inclination": 97.5099,
        "meta_ra_of_asc_node": 148.0028,
        "meta_arg_of_pericenter": 77.6066,
        "meta_mean_anomaly": 282.5708,
        "meta_ephemeris_type": 0,
        "meta_classification_type": "U",
        "meta_norad_cat_id": 55976,
        "meta_element_set_no": 999,
        "meta_rev_at_epoch": 15183,
        "meta_bstar": 0.00059353093,
        "meta_mean_motion_dot": 0.00024637,
        "meta_mean_motion_ddot": 0,
        "tle_line1": "1 55976U 23039D   25345.24503517  .00024637  00000+0  59353-3 0  9994",
        "tle_line2": "2 55976  97.5099 148.0028 0004715  77.6066 282.5708 15.41240112151836"
      },
      "geometry": {
        "type": "Point",
        "coordinates": [
          -27.886242722982857,
          25.956736502786057
        ]
      }
    },
    {
      "type": "Feature",
      "properties": {
        "norad_id": 56232,
        "name": "FENGYUN 3G",
        "group": "weather",
        "lat": 2.5910879376827114,
        "lon": 50.83533235984931,
        "alt_km": 401.3345934024683,
        "timestamp": "2025-12-11T15:53:39.185633+00:00",
        "meta_object_name": "FENGYUN 3G",
        "meta_object_id": "2023-055A",
        "meta_epoch": "2025-12-11T04:19:56.451936",
        "meta_mean_motion": 15.53495979,
        "meta_eccentricity": 0.00092917,
        "meta_inclination": 49.9932,
        "meta_ra_of_asc_node": 235.5005,
        "meta_arg_of_pericenter": 141.2509,
        "meta_mean_anomaly": 218.9126,
        "meta_ephemeris_type": 0,
        "meta_classification_type": "U",
        "meta_norad_cat_id": 56232,
        "meta_element_set_no": 999,
        "meta_rev_at_epoch": 15078,
        "meta_bstar": 0.00075652798,
        "meta_mean_motion_dot": 0.0004892,
        "meta_mean_motion_ddot": 0,
        "tle_line1": "1 56232U 23055A   25345.18051449  .00048920  00000+0  75653-3 0  9995",
        "tle_line2": "2 56232  49.9932 235.5005 0009291 141.2509 218.9126 15.53495979150786"
      },
      "geometry": {
        "type": "Point",
        "coordinates": [
          50.83533235984931,
          2.5910879376827114
        ]
      }
    },
    {
      "type": "Feature",
      "properties": {
        "norad_id": 57166,
        "name": "METEOR-M2 3",
        "group": "weather",
        "lat": 52.33238963243832,
        "lon": -129.42327251874377,
        "alt_km": 808.0604886449582,
        "timestamp": "2025-12-11T15:53:39.185643+00:00",
        "meta_object_name": "METEOR-M2 3",
        "meta_object_id": "2023-091A",
        "meta_epoch": "2025-12-11T06:52:11.055648",
        "meta_mean_motion": 14.24026313,
        "meta_eccentricity": 0.00039909,
        "meta_inclination": 98.638,
        "meta_ra_of_asc_node": 38.851,
        "meta_arg_of_pericenter": 12.9138,
        "meta_mean_anomaly": 347.2143,
        "meta_ephemeris_type": 0,
        "meta_classification_type": "U",
        "meta_norad_cat_id": 57166,
        "meta_element_set_no": 999,
        "meta_rev_at_epoch": 12777,
        "meta_bstar": 6.2510144e-05,
        "meta_mean_motion_dot": 1e-06,
        "meta_mean_motion_ddot": 0,
        "tle_line1": "1 57166U 23091A   25345.28623907  .00000100  00000+0  62510-4 0  9994",
        "tle_line2": "2 57166  98.6380  38.8510 0003990  12.9138 347.2143 14.24026313127775"
      },
      "geometry": {
        "type": "Point",
        "coordinates": [
          -129.42327251874377,
          52.33238963243832
        ]
      }
    },
    {
      "type": "Feature",
      "properties": {
        "norad_id": 57399,
        "name": "TIANMU-1 07",
        "group": "weather",
        "lat": -82.65225333641924,
        "lon": 118.49007988609947,
        "alt_km": 492.76646706696283,
        "timestamp": "2025-12-11T15:53:39.185653+00:00",
        "meta_object_name": "TIANMU-1 07",
        "meta_object_id": "2023-101A",
        "meta_epoch": "2025-12-11T06:51:15.134976",
        "meta_mean_motion": 15.28054135,
        "meta_eccentricity": 0.00056086,
        "meta_inclination": 97.2878,
        "meta_ra_of_asc_node": 35.1671,
        "meta_arg_of_pericenter": 85.2475,
        "meta_mean_anomaly": 274.9405,
        "meta_ephemeris_type": 0,
        "meta_classification_type": "U",
        "meta_norad_cat_id": 57399,
        "meta_element_set_no": 999,
        "meta_rev_at_epoch": 13293,
        "meta_bstar": 0.00094387285,
        "meta_mean_motion_dot": 0.00025825,
        "meta_mean_motion_ddot": 0,
        "tle_line1": "1 57399U 23101A   25345.28559184  .00025825  00000+0  94387-3 0  9996",
        "tle_line2": "2 57399  97.2878  35.1671 0005608  85.2475 274.9405 15.28054135132932"
      },
      "geometry": {
        "type": "Point",
        "coordinates": [
          118.49007988609947,
          -82.65225333641924
        ]
      }
    }
  ]
}